NORAD_CAT_ID,OBJECT_NAME,OBJECT_TYPE,EPOCH,MEAN_MOTION,ECCENTRICITY,INCLINATION,RA_OF_ASC_NODE,ARG_OF_PERICENTER,MEAN_ANOMALY,BSTAR,MEAN_MOTION_DOT,MEAN_MOTION_DDOT,TLE_LINE0,TLE_LINE1,TLE_LINE2,SEMIMAJOR_AXIS,PERIOD,APOGEE,PERIGEE,DECAYED
55781.0,STARLINK-5820,PAYLOAD,2023-10-21 02:28:04,14.98320517,0.0002105,70.0012,259.6963,248.3758,111.7177,-0.0001192,-1.514e-05,0.0,0 STARLINK-5820,1 55781U 23028AS  23294.10282500 -.00001514  00000-0 -11920-3 0  9998,2 55781  70.0012 259.6963 0002105 248.3758 111.7177 14.98320517 36120,6950.222,96.108,573.55,570.624,0.0
55781.0,STARLINK-5820,PAYLOAD,2023-10-21 07:16:27,14.98324288,0.0003052,69.9994,259.1913,285.129,74.9531,7.8421e-05,8.43e-06,0.0,0 STARLINK-5820,1 55781U 23028AS  23294.30309836  .00000843  00000-0  78421-4 0  9994,2 55781  69.9994 259.1913 0003052 285.1290  74.9531 14.98324288 36154,6950.211,96.107,574.197,569.954,0.0
55781.0,STARLINK-5820,PAYLOAD,2023-10-21 15:17:07,14.98335691,0.0002805,70.0011,258.3496,277.0346,83.0494,-1.7938e-05,-3.07e-06,0.0,0 STARLINK-5820,1 55781U 23028AS  23294.63689244 -.00000307  00000-0 -17938-4 0  9997,2 55781  70.0011 258.3496 0002805 277.0346  83.0494 14.98335691 36206,6950.175,96.107,573.99,570.091,0.0
55781.0,STARLINK-5820,PAYLOAD,2023-10-21 21:41:39,14.98327453,0.000265,70.0007,257.6767,261.1972,98.8887,0.00012138,1.356e-05,0.0,0 STARLINK-5820,1 55781U 23028AS  23294.90393236  .00001356  00000-0  12138-3 0  9999,2 55781  70.0007 257.6767 0002650 261.1972  98.8887 14.98327453 36242,6950.201,96.107,573.908,570.224,0.0
55781.0,STARLINK-5820,PAYLOAD,2023-10-22 07:18:27,14.98334287,0.00025,70.0006,256.6667,263.4902,96.5972,0.00016677,1.898e-05,0.0,0 STARLINK-5820,1 55781U 23028AS  23295.30448659  .00001898  00000-0  16677-3 0  9997,2 55781  70.0006 256.6667 0002500 263.4902  96.5972 14.98334287 36301,6950.18,96.107,573.782,570.307,0.0
55781.0,STARLINK-5820,PAYLOAD,2023-10-22 15:19:08,14.98329294,0.0002265,70.0024,255.8262,286.4728,73.6182,4.7247e-05,4.71e-06,0.0,0 STARLINK-5820,1 55781U 23028AS  23295.63829457  .00000471  00000-0  47247-4 0  9996,2 55781  70.0024 255.8262 0002265 286.4728  73.6182 14.98329294 36358,6950.195,96.107,573.634,570.486,0.0
55781.0,STARLINK-5820,PAYLOAD,2023-10-22 21:43:41,14.98323017,0.0002445,70.0022,255.1512,263.6971,96.3909,5.5909e-05,5.74e-06,0.0,0 STARLINK-5820,1 55781U 23028AS  23295.90533638  .00000574  00000-0  55909-4 0  9997,2 55781  70.0022 255.1512 0002445 263.6971  96.3909 14.98323017 36394,6950.214,96.107,573.779,570.38,0.0
55781.0,STARLINK-5820,PAYLOAD,2023-10-23 02:32:05,14.98321499,0.000255,70.0009,254.6476,273.0303,87.0565,-1.0352e-05,-2.16e-06,0.0,0 STARLINK-5820,1 55781U 23028AS  23296.10562055 -.00000216  00000-0 -10352-4 0  9993,2 55781  70.0009 254.6476 0002550 273.0303  87.0565 14.98321499 36424,6950.219,96.108,573.856,570.312,0.0
55781.0,STARLINK-5820,PAYLOAD,2023-10-23 21:45:42,14.98331282,0.0002948,69.9998,252.6285,272.9443,87.1379,-4.6067e-05,-6.43e-06,0.0,0 STARLINK-5820,1 55781U 23028AS  23296.90673634 -.00000643  00000-0 -46067-4 0  9993,2 55781  69.9998 252.6285 0002948 272.9443  87.1379 14.98331282 36546,6950.189,96.107,574.103,570.005,0.0
55781.0,STARLINK-5820,PAYLOAD,2023-10-24 04:10:13,14.98335729,0.0002849,69.9996,251.9545,271.2569,88.8264,-1.6719e-05,-2.92e-06,0.0,0 STARLINK-5820,1 55781U 23028AS  23297.17377222 -.00000292  00000-0 -16719-4 0  9998,2 55781  69.9996 251.9545 0002849 271.2569  88.8264 14.98335729 36581,6950.175,96.107,574.02,570.06,0.0
55781.0,STARLINK-5820,PAYLOAD,2023-10-24 13:47:01,14.98359826,0.0002983,69.9999,250.9445,276.6067,83.4752,-0.00044449,-5.397e-05,0.0,0 STARLINK-5820,1 55781U 23028AS  23297.57432473 -.00005397  00000-0 -44449-3 0  9993,2 55781  69.9999 250.9445 0002983 276.6067  83.4752 14.98359826 36647,6950.101,96.105,574.039,569.892,0.0
55781.0,STARLINK-5820,PAYLOAD,2023-10-25 07:24:30,14.98332236,0.0002855,70.0,249.0934,273.424,86.6592,0.00013557,1.525e-05,0.0,0 STARLINK-5820,1 55781U 23028AS  23298.30868867  .00001525  00000-0  13557-3 0  9998,2 55781  70.0000 249.0934 0002855 273.4240  86.6592 14.98332236 36756,6950.186,96.107,574.035,570.067,0.0
55781.0,STARLINK-5820,PAYLOAD,2023-10-25 21:49:43,14.98334132,0.0002313,70.001,247.5792,255.5547,104.5355,4.5877e-06,-3.8e-07,0.0,0 STARLINK-5820,1 55781U 23028AS  23298.90953033 -.00000038  00000-0  45877-5 0  9995,2 55781  70.0010 247.5792 0002313 255.5547 104.5355 14.98334132 36846,6950.18,96.107,573.653,570.438,0.0
55781.0,STARLINK-5820,PAYLOAD,2023-10-26 07:26:31,14.98335317,0.0002658,69.9999,246.568,267.2905,92.795,-5.8876e-06,-1.63e-06,0.0,0 STARLINK-5820,1 55781U 23028AS  23299.31008897 -.00000163  00000-0 -58876-5 0  9993,2 55781  69.9999 246.5680 0002658 267.2905  92.7950 14.98335317 36906,6950.176,96.107,573.889,570.194,0.0
55781.0,STARLINK-5820,PAYLOAD,2023-10-26 21:51:44,14.98329562,0.0002624,70.0002,245.0528,269.6056,90.4803,-4.4674e-05,-6.26e-06,0.0,0 STARLINK-5820,1 55781U 23028AS  23299.91093284 -.00000626  00000-0 -44674-4 0  9997,2 55781  70.0002 245.0528 0002624 269.6056  90.4803 14.98329562 36991,6950.194,96.107,573.883,570.236,0.0
55781.0,STARLINK-5820,PAYLOAD,2023-10-27 13:53:05,14.9833092,0.0002305,70.002,243.3713,280.0505,80.0394,-3.5636e-05,-5.18e-06,0.0,0 STARLINK-5820,1 55781U 23028AS  23300.57853267 -.00000518  00000-0 -35636-4 0  9995,2 55781  70.0020 243.3713 0002305 280.0505  80.0394 14.98330920 37092,6950.19,96.107,573.657,570.453,0.0
55781.0,STARLINK-5820,PAYLOAD,2023-10-27 20:17:37,14.98327659,0.0002412,70.0008,242.6981,270.6469,89.4414,1.9527e-06,-7e-07,0.0,0 STARLINK-5820,1 55781U 23028AS  23300.84557260 -.00000070  00000-0  19527-5 0  9993,2 55781  70.0008 242.6981 0002412 270.6469  89.4414 14.98327659 37136,6950.2,96.107,573.742,570.389,0.0
55781.0,STARLINK-5820,PAYLOAD,2023-10-27 21:53:45,14.98321799,0.0002687,70.0002,242.5278,265.0971,94.9881,-5.7595e-05,-7.8e-06,0.0,0 STARLINK-5820,1 55781U 23028AS  23300.91233683 -.00000780  00000-0 -57595-4 0  9996,2 55781  70.0002 242.5278 0002687 265.0971  94.9881 14.98321799 37147,6950.218,96.108,573.951,570.216,0.0
55781.0,STARLINK-5820,PAYLOAD,2023-10-28 13:55:06,14.9832664,0.0002614,70.0004,240.8452,266.6035,93.4825,1.1061e-05,3.9e-07,0.0,0 STARLINK-5820,1 55781U 23028AS  23301.57993398  .00000039  00000-0  11061-4 0  9998,2 55781  70.0004 240.8452 0002614 266.6035  93.4825 14.98326640 37245,6950.203,96.107,573.885,570.251,0.0
55781.0,STARLINK-5820,PAYLOAD,2023-10-28 20:19:38,14.98329165,0.0002927,69.9995,240.1715,268.6489,91.4335,-4.0681e-06,-1.42e-06,0.0,0 STARLINK-5820,1 55781U 23028AS  23301.84697268 -.00000142  00000-0 -40681-5 0  9993,2 55781  69.9995 240.1715 0002927 268.6489  91.4335 14.98329165 37281,6950.195,96.107,574.095,570.026,0.0
55781.0,STARLINK-5820,PAYLOAD,2023-10-28 21:55:46,14.98329999,0.0002938,69.9996,240.0031,268.4211,91.6612,1.0289e-05,3e-07,0.0,0 STARLINK-5820,1 55781U 23028AS  23301.91373172  .00000030  00000-0  10289-4 0  9990,2 55781  69.9996 240.0031 0002938 268.4211  91.6612 14.98329999 37291,6950.193,96.107,574.1,570.016,0.0
55781.0,STARLINK-5820,PAYLOAD,2023-10-29 05:56:26,14.98338196,0.0002679,70.0004,239.1629,274.5723,85.513,9.666e-05,1.061e-05,0.0,0 STARLINK-5820,1 55781U 23028AS  23302.24752454  .00001061  00000-0  96660-4 0  9993,2 55781  70.0004 239.1629 0002679 274.5723  85.5130 14.98338196 37346,6950.168,96.106,573.894,570.171,0.0
55781.0,STARLINK-5820,PAYLOAD,2023-10-29 18:45:31,14.98326106,0.0002526,70.0015,237.8185,270.8012,89.2858,0.00012315,1.377e-05,0.0,0 STARLINK-5820,1 55781U 23028AS  23302.78160995  .00001377  00000-0  12315-3 0  9999,2 55781  70.0015 237.8185 0002526 270.8012  89.2858 14.98326106 37426,6950.205,96.107,573.826,570.314,0.0
55781.0,STARLINK-5820,PAYLOAD,2023-10-29 21:57:47,14.98323231,0.0002664,70.0022,237.4805,268.4137,91.6717,6.4851e-05,6.81e-06,0.0,0 STARLINK-5820,1 55781U 23028AS  23302.91513372  .00000681  00000-0  64851-4 0  9995,2 55781  70.0022 237.4805 0002664 268.4137  91.6717 14.98323231 37442,6950.214,96.107,573.93,570.227,0.0
55781.0,STARLINK-5820,PAYLOAD,2023-10-30 20:23:40,14.98326977,0.0002742,70.0012,235.1233,270.1803,89.9042,-6.1024e-05,-8.21e-06,0.0,0 STARLINK-5820,1 55781U 23028AS  23303.84977586 -.00000821  00000-0 -61024-4 0  9996,2 55781  70.0012 235.1233 0002742 270.1803  89.9042 14.98326977 37584,6950.202,96.107,573.973,570.161,0.0
55781.0,STARLINK-5820,PAYLOAD,2023-10-30 21:59:43,14.98389339,0.0002772,70.0,234.9544,267.9583,92.1259,0.00067981,8.04e-05,0.0,0 STARLINK-5820,1 55781U 23028AS  23303.91648049  .00008040  00000-0  67981-3 0  9999,2 55781  70.0000 234.9544 0002772 267.9583  92.1259 14.98389339 37593,6950.009,96.103,573.801,569.948,0.0
55781.0,STARLINK-5820,PAYLOAD,2023-10-31 04:24:20,14.98337769,0.0002208,70.0007,234.2823,265.7507,94.34,4.0132e-05,3.86e-06,0.0,0 STARLINK-5820,1 55781U 23028AS  23304.18356800  .00000386  00000-0  40132-4 0  9995,2 55781  70.0007 234.2823 0002208 265.7507  94.3400 14.98337769 37636,6950.169,96.107,573.568,570.499,0.0
55781.0,STARLINK-5820,PAYLOAD,2023-10-31 12:25:01,14.98321263,0.0001659,70.0005,233.44,285.9974,74.1002,0.00014627,1.652e-05,0.0,0 STARLINK-5820,1 55781U 23028AS  23304.51737889  .00001652  00000-0  14627-3 0  9998,2 55781  70.0005 233.4400 0001659 285.9974  74.1002 14.98321263 37688,6950.22,96.108,573.238,570.932,0.0
55781.0,STARLINK-5820,PAYLOAD,2023-10-31 20:25:45,14.9828052,0.0002568,70.0009,232.5983,271.4925,88.5939,-0.00059781,-7.209e-05,0.0,0 STARLINK-5820,1 55781U 23028AS  23304.85121713 -.00007209  00000-0 -59781-3 0  9994,2 55781  70.0009 232.5983 0002568 271.4925  88.5939 14.98280520 37738,6950.346,96.11,573.996,570.426,0.0
55781.0,STARLINK-5820,PAYLOAD,2023-10-31 22:01:50,14.98315266,0.0002786,70.0009,232.4299,265.6739,94.4102,-0.00020686,-2.559e-05,0.0,0 STARLINK-5820,1 55781U 23028AS  23304.91794642 -.00002559  00000-0 -20686-3 0  9993,2 55781  70.0009 232.4299 0002786 265.6739  94.4102 14.98315266 37742,6950.238,96.108,574.04,570.167,0.0
